FALCONSAT-10            
1 58291U 23174AM  26068.70247784  .00006748  00000+0  25969-3 0  9991
2 58291  97.3865 145.7938 0008932 169.5942 190.5483 15.26670596129582
STARLINK-31728          
1 59496U 24071N   26068.08643689  .00028644  00000+0  10473-2 0  9993
2 59496  43.0043 343.1232 0001904 251.6182 108.4463 15.27551096108114
